CCSDS_OMM_VERS,COMMENT,CREATION_DATE,ORIGINATOR,OBJECT_NAME,OBJECT_ID,CENTER_NAME,REF_FRAME,TIME_SYSTEM,MEAN_ELEMENT_THEORY,EPOCH,MEAN_MOTION,ECCENTRICITY,INCLINATION,RA_OF_ASC_NODE,ARG_OF_PERICENTER,MEAN_ANOMALY,EPHEMERIS_TYPE,CLASSIFICATION_TYPE,NORAD_CAT_ID,ELEMENT_SET_NO,REV_AT_EPOCH,BSTAR,MEAN_MOTION_DOT,MEAN_MOTION_DDOT,SEMIMAJOR_AXIS,PERIOD,APOAPSIS,PERIAPSIS,OBJECT_TYPE,RCS_SIZE,COUNTRY_CODE,LAUNCH_DATE,SITE,DECAY_DATE,FILE,GP_ID,TLE_LINE0,TLE_LINE1,TLE_LINE2
2,GENERATED VIA SPACE-TRACK.ORG API,2016-11-09T18:43:57,18 SPCS,GALILEO-FM2,2011-060B,EARTH,TEME,UTC,SGP4,2016-11-08T21:00:02.568672,1.70475855,0.0002644,55.6624,77.8901,291.175,244.9984,0,U,37847,999,3133,0.0,3e-08,0,29600.105,844.694,23229.796,23214.144,PAYLOAD,LARGE,ESA,2011-10-21,FRGUI,,2111329,108158109,0 GALILEO-FM2,1 37847U 11060B   16313.87502973 +.00000003 +00000-0 +00000-0 0  9995,2 37847 055.6624 077.8901 0002644 291.1750 244.9984 01.70475855031334
2,GENERATED VIA SPACE-TRACK.ORG API,2016-11-09T23:12:43,18 SPCS,GALILEO-FM2,2011-060B,EARTH,TEME,UTC,SGP4,2016-11-09T14:36:48.185856,1.70475834,0.0002669,55.6629,77.8694,291.1322,335.4323,0,U,37847,999,3146,0.0,0.0,0,29600.107,844.694,23229.873,23214.072,PAYLOAD,LARGE,ESA,2011-10-21,FRGUI,,2111447,108161462,0 GALILEO-FM2,1 37847U 11060B   16314.60889104  .00000000  00000-0  00000+0 0  9997,2 37847  55.6629  77.8694 0002669 291.1322 335.4323  1.70475834 31464
2,GENERATED VIA SPACE-TRACK.ORG API,2016-11-11T16:23:36,18 SPCS,GALILEO-FM2,2011-060B,EARTH,TEME,UTC,SGP4,2016-11-10T08:28:12.468576,1.70475814,0.0002691,55.6634,77.8486,291.1446,72.0522,0,U,37847,999,3136,0.0,-3e-08,0,29600.11,844.694,23229.94,23214.009,PAYLOAD,LARGE,ESA,2011-10-21,FRGUI,,2112346,108195798,0 GALILEO-FM2,1 37847U 11060B   16315.35292209 -.00000003 +00000-0 +00000-0 0  9999,2 37847 055.6634 077.8486 0002691 291.1446 072.0522 01.70475814031363
2,GENERATED VIA SPACE-TRACK.ORG API,2016-11-14T15:36:39,18 SPCS,GALILEO-FM2,2011-060B,EARTH,TEME,UTC,SGP4,2016-11-14T06:31:02.783136,1.70475753,0.000281,55.6664,77.7385,290.5628,317.6104,0,U,37847,999,3154,0.0,-2.7e-07,0,29600.117,844.694,23230.299,23213.664,PAYLOAD,LARGE,ESA,2011-10-21,FRGUI,,2113719,108242150,0 GALILEO-FM2,1 37847U 11060B   16319.27155999 -.00000027  00000-0  00000+0 0  9993,2 37847  55.6664  77.7385 0002810 290.5628 317.6104  1.70475753 31547
2,GENERATED VIA SPACE-TRACK.ORG API,2016-11-16T16:20:59,18 SPCS,GALILEO-FM2,2011-060B,EARTH,TEME,UTC,SGP4,2016-11-15T14:19:28.062048,1.70475755,0.0002853,55.6674,77.7014,290.4349,51.1068,0,U,37847,999,3144,0.0,-3.1e-07,0,29600.116,844.694,23230.426,23213.536,PAYLOAD,LARGE,ESA,2011-10-21,FRGUI,,2114690,108288470,0 GALILEO-FM2,1 37847U 11060B   16320.59685257 -.00000031 +00000-0 +00000-0 0  9991,2 37847 055.6674 077.7014 0002853 290.4349 051.1068 01.70475755031443
2,GENERATED VIA SPACE-TRACK.ORG API,2016-11-17T15:24:03,18 SPCS,GALILEO-FM2,2011-060B,EARTH,TEME,UTC,SGP4,2016-11-17T09:16:41.216160,1.70477272,0.0003009,55.6689,77.6519,289.3047,70.6446,0,U,37847,999,3159,0.0001,7e-08,0,29599.941,844.687,23230.712,23212.899,PAYLOAD,LARGE,ESA,2011-10-21,FRGUI,,2115018,108296073,0 GALILEO-FM2,1 37847U 11060B   16322.38658815  .00000007  00000-0  10000-3 0  9996,2 37847  55.6689  77.6519 0003009 289.3047  70.6446  1.70477272 31592
2,GENERATED VIA SPACE-TRACK.ORG API,2016-11-17T20:07:32,18 SPCS,GALILEO-FM2,2011-060B,EARTH,TEME,UTC,SGP4,2016-11-17T15:05:58.305984,1.70475776,0.0002921,55.6689,77.6443,290.0468,218.7699,0,U,37847,999,3160,0.0,-3.3e-07,0,29600.114,844.694,23230.625,23213.333,PAYLOAD,LARGE,ESA,2011-10-21,FRGUI,,2115128,108307379,0 GALILEO-FM2,1 37847U 11060B   16322.62914706 -.00000033  00000-0  00000+0 0  9992,2 37847  55.6689  77.6443 0002921 290.0468 218.7699  1.70475776 31600
2,GENERATED VIA SPACE-TRACK.ORG API,2016-11-19T16:21:42,18 SPCS,GALILEO-FM2,2011-060B,EARTH,TEME,UTC,SGP4,2016-11-18T13:41:25.360224,1.70475792,0.0002967,55.6696,77.6179,289.9226,76.5868,0,U,37847,999,3150,0.0,-3.3e-07,0,29600.112,844.694,23230.759,23213.195,PAYLOAD,LARGE,ESA,2011-10-21,FRGUI,,2115740,108339284,0 GALILEO-FM2,1 37847U 11060B   16323.57043241 -.00000033 +00000-0 +00000-0 0  9995,2 37847 055.6696 077.6179 0002967 289.9226 076.5868 01.70475792031508
2,GENERATED VIA SPACE-TRACK.ORG API,2016-11-20T07:19:25,18 SPCS,GALILEO-FM2,2011-060B,EARTH,TEME,UTC,SGP4,2016-11-20T00:52:12.584928,1.70475829,0.0003012,55.6706,77.5767,289.7573,256.369,0,U,37847,999,3164,0.0,-3.7e-07,0,29600.108,844.694,23230.888,23213.057,PAYLOAD,LARGE,ESA,2011-10-21,FRGUI,,2115956,108345197,0 GALILEO-FM2,1 37847U 11060B   16325.03625677 -.00000037  00000-0  00000+0 0  9990,2 37847  55.6706  77.5767 0003012 289.7573 256.3690  1.70475829 31644
2,GENERATED VIA SPACE-TRACK.ORG API,2016-11-21T16:06:55,18 SPCS,GALILEO-FM2,2011-060B,EARTH,TEME,UTC,SGP4,2016-11-20T22:29:35.212704,1.70475853,0.0003046,55.6712,77.5514,289.6869,89.3811,0,U,37847,999,3154,0.0,-4e-07,0,29600.105,844.694,23230.986,23212.954,PAYLOAD,LARGE,ESA,2011-10-21,FRGUI,,2116584,108376995,0 GALILEO-FM2,1 37847U 11060B   16325.93721311 -.00000040 +00000-0 +00000-0 0  9996,2 37847 055.6712 077.5514 0003046 289.6869 089.3811 01.70475853031540
2,GENERATED VIA SPACE-TRACK.ORG API,2016-11-24T07:22:02,18 SPCS,GALILEO-FM2,2011-060B,EARTH,TEME,UTC,SGP4,2016-11-23T23:13:47.921664,1.70475936,0.0003152,55.6734,77.4663,289.1347,149.9595,0,U,37847,999,3171,0.0,-5.1e-07,0,29600.095,844.693,23231.29,23212.631,PAYLOAD,LARGE,ESA,2011-10-21,FRGUI,,2117762,108421479,0 GALILEO-FM2,1 37847U 11060B   16328.96791576 -.00000051  00000-0  00000+0 0  9993,2 37847  55.6734  77.4663 0003152 289.1347 149.9595  1.70475936 31715
2,GENERATED VIA SPACE-TRACK.ORG API,2016-11-26T16:43:29,18 SPCS,GALILEO-FM2,2011-060B,EARTH,TEME,UTC,SGP4,2016-11-25T14:21:12.617280,1.70475976,0.0003212,55.6745,77.4206,288.7357,70.8248,0,U,37847,999,3161,0.0,-5.3e-07,0,29600.091,844.693,23231.463,23212.448,PAYLOAD,LARGE,ESA,2011-10-21,FRGUI,,2118841,108472395,0 GALILEO-FM2,1 37847U 11060B   16330.59806270 -.00000053 +00000-0 +00000-0 0  9996,2 37847 055.6745 077.4206 0003212 288.7357 070.8248 01.70475976031613
2,GENERATED VIA SPACE-TRACK.ORG API,2016-11-27T23:16:07,18 SPCS,GALILEO-FM2,2011-060B,EARTH,TEME,UTC,SGP4,2016-11-27T13:05:00.403584,1.70476003,0.0003291,55.6759,77.3661,288.485,186.0531,0,U,37847,999,3177,0.0,-4.9e-07,0,29600.088,844.693,23231.694,23212.211,PAYLOAD,LARGE,ESA,2011-10-21,FRGUI,,2119431,108494512,0 GALILEO-FM2,1 37847U 11060B   16332.54514356 -.00000049  00000-0  00000+0 0  9998,2 37847  55.6759  77.3661 0003291 288.4850 186.0531  1.70476003 31778
2,GENERATED VIA SPACE-TRACK.ORG API,2016-11-30T16:51:58,18 SPCS,GALILEO-FM2,2011-060B,EARTH,TEME,UTC,SGP4,2016-11-29T02:49:47.161344,1.70476009,0.0003347,55.6769,77.322,288.3558,71.4309,0,U,37847,999,3167,0.0,-4.4e-07,0,29600.087,844.693,23231.859,23212.045,PAYLOAD,LARGE,ESA,2011-10-21,FRGUI,,2120595,108547789,0 GALILEO-FM2,1 37847U 11060B   16334.11790696 -.00000044 +00000-0 +00000-0 0  9992,2 37847 055.6769 077.3220 0003347 288.3558 071.4309 01.70476009031671
2,GENERATED VIA SPACE-TRACK.ORG API,2016-11-30T15:10:52,18 SPCS,GALILEO-FM2,2011-060B,EARTH,TEME,UTC,SGP4,2016-11-30T09:12:32.246784,1.70475996,0.0003395,55.6778,77.2865,288.3011,128.342,0,U,37847,999,3182,0.0,-3.8e-07,0,29600.089,844.693,23232.003,23211.904,PAYLOAD,LARGE,ESA,2011-10-21,FRGUI,,2120566,108538784,0 GALILEO-FM2,1 37847U 11060B   16335.38370656 -.00000038  00000-0  00000+0 0  9994,2 37847  55.6778  77.2865 0003395 288.3011 128.3420  1.70475996 31829
2,GENERATED VIA SPACE-TRACK.ORG API,2016-12-02T16:38:24,18 SPCS,GALILEO-FM2,2011-060B,EARTH,TEME,UTC,SGP4,2016-12-01T08:41:26.513088,1.70475976,0.0003425,55.6784,77.2591,288.3364,8.7816,0,U,37847,999,3171,0.0,-3.4e-07,0,29600.091,844.693,23232.094,23211.818,PAYLOAD,LARGE,ESA,2011-10-21,FRGUI,,2121411,108584265,0 GALILEO-FM2,1 37847U 11060B   16336.36211242 -.00000034 +00000-0 +00000-0 0  9995,2 37847 055.6784 077.2591 0003425 288.3364 008.7816 01.70475976031713
2,GENERATED VIA SPACE-TRACK.ORG API,2016-12-05T07:11:57,18 SPCS,GALILEO-FM2,2011-060B,EARTH,TEME,UTC,SGP4,2016-12-04T23:42:06.309792,1.70475868,0.0003563,55.6809,77.1574,288.3533,73.81,0,U,37847,999,3190,0.0,-2.2e-07,0,29600.103,844.694,23232.515,23211.422,PAYLOAD,LARGE,ESA,2011-10-21,FRGUI,,2122472,108624066,0 GALILEO-FM2,1 37847U 11060B   16339.98757303 -.00000022  00000-0  00000+0 0  9995,2 37847  55.6809  77.1574 0003563 288.3533  73.8100  1.70475868 31902
2,GENERATED VIA SPACE-TRACK.ORG API,2016-12-07T15:53:38,18 SPCS,GALILEO-FM2,2011-060B,EARTH,TEME,UTC,SGP4,2016-12-06T18:01:09.528672,1.70475812,0.0003636,55.6821,77.1078,288.5592,75.748,0,U,37847,999,3181,0.0,-2.5e-07,0,29600.11,844.694,23232.737,23211.212,PAYLOAD,LARGE,ESA,2011-10-21,FRGUI,,2123556,108672287,0 GALILEO-FM2,1 37847U 11060B   16341.75080473 -.00000025 +00000-0 +00000-0 0  9994,2 37847 055.6821 077.1078 0003636 288.5592 075.7480 01.70475812031814
2,GENERATED VIA SPACE-TRACK.ORG API,2016-12-13T15:14:32,18 SPCS,GALILEO-FM2,2011-060B,EARTH,TEME,UTC,SGP4,2016-12-13T07:50:18.540672,1.70475728,0.0003895,55.6869,76.9229,289.1317,150.9237,0,U,37847,999,3204,0.0,-5.3e-07,0,29600.12,844.695,23233.514,23210.455,PAYLOAD,LARGE,ESA,2011-10-21,FRGUI,,2126187,108774788,0 GALILEO-FM2,1 37847U 11060B   16348.32660348 -.00000053  00000-0  00000+0 0  9999,2 37847  55.6869  76.9229 0003895 289.1317 150.9237  1.70475728 32048
2,GENERATED VIA SPACE-TRACK.ORG API,2016-12-17T15:18:44,18 SPCS,GALILEO-FM2,2011-060B,EARTH,TEME,UTC,SGP4,2016-12-17T08:11:58.662816,1.70475803,0.0004071,55.6896,76.81,289.4241,94.7762,0,U,37847,999,3211,0.0,-5.7e-07,0,29600.111,844.694,23234.026,23209.926,PAYLOAD,LARGE,ESA,2011-10-21,FRGUI,,2127867,108845615,0 GALILEO-FM2,1 37847U 11060B   16352.34165119 -.00000057  00000-0  00000+0 0  9996,2 37847  55.6896  76.8100 0004071 289.4241  94.7762  1.70475803 32111
